[{"OBJECT_NAME":"ITAMSAT (IO-26)","OBJECT_ID":"1993-061D","EPOCH":"2026-03-09T18:51:40.558176","MEAN_MOTION":14.31337175,"ECCENTRICITY":0.00091856,"INCLINATION":98.6929,"RA_OF_ASC_NODE":136.1036,"ARG_OF_PERICENTER":22.8845,"MEAN_ANOMALY":337.2746,"EPHEMERIS_TYPE":0,"CLASSIFICATION_TYPE":"U","NORAD_CAT_ID":22826,"ELEMENT_SET_NO":999,"REV_AT_EPOCH":69309,"BSTAR":7.3937292e-5,"MEAN_MOTION_DOT":1.51e-6,"MEAN_MOTION_DDOT":0},{"OBJECT_NAME":"NOAA 16 DEB","OBJECT_ID":"2000-055N","EPOCH":"2026-03-09T19:19:43.686336","MEAN_MOTION":14.35469486,"ECCENTRICITY":0.00168984,"INCLINATION":98.7827,"RA_OF_ASC_NODE":181.9267,"ARG_OF_PERICENTER":140.6571,"MEAN_ANOMALY":219.5845,"EPHEMERIS_TYPE":0,"CLASSIFICATION_TYPE":"U","NORAD_CAT_ID":41055,"ELEMENT_SET_NO":999,"REV_AT_EPOCH":53332,"BSTAR":0.0019106016,"MEAN_MOTION_DOT":5.459e-5,"MEAN_MOTION_DDOT":0}]
